{"type": "FeatureCollection", "features": [ {"type": "Feature", "properties": {"norad_id": 58654, "name": "BEIDOU-3 M28 (C50)", "group": "beidou", "lat": 2.9393273435199747, "lon": -113.42340091080654, "alt_km": 21528.4211021086, "timestamp": "2025-12-13T05:42:57.824133+00:00", "meta": {"OBJECT_NAME": "BEIDOU-3 M28 (C50)", "OBJECT_ID": "2023-207A", "EPOCH": "2025-12-11T21:37:33.991968", "MEAN_MOTION": 1.86229651, "ECCENTRICITY": 0.00023562, "INCLINATION": 55.5838, "RA_OF_ASC_NODE": 68.6297, "ARG_OF_PERICENTER": 269.3243, "MEAN_ANOMALY": 90.6691, "EPHEMERIS_TYPE": 0, "CLASSIFICATION_TYPE": "U", "NORAD_CAT_ID": 58654, "ELEMENT_SET_NO": 999, "REV_AT_EPOCH": 1335, "BSTAR": 0, "MEAN_MOTION_DOT": -6.9e-07, "MEAN_MOTION_DDOT": 0}, "tle": {"line1": "1 58654U 23207A   25345.90108787 -.00000069  00000+0  00000+0 0  9995", "line2": "2 58654  55.5838  68.6297 0002356 269.3243  90.6691  1.86229651 13350"}}, "geometry": {"type": "Point", "coordinates": [-113.42340091080654, 2.9393273435199747]}}, {"type": "Feature", "properties": {"norad_id": 58655, "name": "BEIDOU-3 M26 (C48)", "group": "beidou", "lat": -37.740104682677426, "lon": 36.58125741338193, "alt_km": 21526.836392945006, "timestamp": "2025-12-13T05:42:57.824145+00:00", "meta": {"OBJECT_NAME": "BEIDOU-3 M26 (C48)", "OBJECT_ID": "2023-207B", "EPOCH": "2025-12-11T03:52:58.066752", "MEAN_MOTION": 1.86231203, "ECCENTRICITY": 0.000378, "INCLINATION": 55.5852, "RA_OF_ASC_NODE": 68.6411, "ARG_OF_PERICENTER": 255.3563, "MEAN_ANOMALY": 104.6232, "EPHEMERIS_TYPE": 0, "CLASSIFICATION_TYPE": "U", "NORAD_CAT_ID": 58655, "ELEMENT_SET_NO": 999, "REV_AT_EPOCH": 1332, "BSTAR": 0, "MEAN_MOTION_DOT": -6.3e-07, "MEAN_MOTION_DDOT": 0}, "tle": {"line1": "1 58655U 23207B   25345.16178318 -.00000063  00000+0  00000+0 0  9995", "line2": "2 58655  55.5852  68.6411 0003780 255.3563 104.6232  1.86231203 13327"}}, "geometry": {"type": "Point", "coordinates": [36.58125741338193, -37.740104682677426]}}, {"type": "Feature", "properties": {"norad_id": 61186, "name": "BEIDOU-3 M25 (C47)", "group": "beidou", "lat": 49.61380696510781, "lon": 5.2146191377158955, "alt_km": 21532.58584648964, "timestamp": "2025-12-13T05:42:57.824157+00:00", "meta": {"OBJECT_NAME": "BEIDOU-3 M25 (C47)", "OBJECT_ID": "2024-168B", "EPOCH": "2025-12-09T12:38:32.089056", "MEAN_MOTION": 1.86229941, "ECCENTRICITY": 0.0005432, "INCLINATION": 54.6447, "RA_OF_ASC_NODE": 308.8306, "ARG_OF_PERICENTER": 296.174, "MEAN_ANOMALY": 164.5169, "EPHEMERIS_TYPE": 0, "CLASSIFICATION_TYPE": "U", "NORAD_CAT_ID": 61186, "ELEMENT_SET_NO": 999, "REV_AT_EPOCH": 825, "BSTAR": 0, "MEAN_MOTION_DOT": -7.8e-07, "MEAN_MOTION_DDOT": 0}, "tle": {"line1": "1 61186U 24168B   25343.52676029 -.00000078  00000+0  00000+0 0  9991", "line2": "2 61186  54.6447 308.8306 0005432 296.1740 164.5169  1.86229941  8254"}}, "geometry": {"type": "Point", "coordinates": [5.2146191377158955, 49.61380696510781]}}, {"type": "Feature", "properties": {"norad_id": 61187, "name": "BEIDOU-3 M27 (C49)", "group": "beidou", "lat": -19.350730433319367, "lon": 143.10059173094584, "alt_km": 21535.260035744446, "timestamp": "2025-12-13T05:42:57.824168+00:00", "meta": {"OBJECT_NAME": "BEIDOU-3 M27 (C49)", "OBJECT_ID": "2024-168C", "EPOCH": "2025-12-12T03:14:00.933792", "MEAN_MOTION": 1.86230278, "ECCENTRICITY": 0.00023762, "INCLINATION": 54.6378, "RA_OF_ASC_NODE": 308.7239, "ARG_OF_PERICENTER": 336.4923, "MEAN_ANOMALY": 207.6472, "EPHEMERIS_TYPE": 0, "CLASSIFICATION_TYPE": "U", "NORAD_CAT_ID": 61187, "ELEMENT_SET_NO": 999, "REV_AT_EPOCH": 577, "BSTAR": 0, "MEAN_MOTION_DOT": -9.1e-07, "MEAN_MOTION_DDOT": 0}, "tle": {"line1": "1 61187U 24168C   25346.13473303 -.00000091  00000+0  00000+0 0  9997", "line2": "2 61187  54.6378 308.7239 0002376 336.4923 207.6472  1.86230278  5772"}}, "geometry": {"type": "Point", "coordinates": [143.10059173094584, -19.350730433319367]}}]}